CCSDS_OMM_VERS = 2.0
CREATION_DATE  = 
ORIGINATOR     = 

OBJECT_NAME    = SL-4 R/B
OBJECT_ID      = 2014-021B
CENTER_NAME    = EARTH
REF_FRAME      = TEME
TIME_SYSTEM    = UTC
MEAN_ELEMENT_THEORY = SGP/SGP4

EPOCH          = 2025-12-12T21:01:22.275264
MEAN_MOTION    = 15.36676627
ECCENTRICITY   = .01017086
INCLINATION    = 51.6088
RA_OF_ASC_NODE = 39.9315
ARG_OF_PERICENTER = 146.6242
MEAN_ANOMALY   = 214.1207

EPHEMERIS_TYPE = 0
CLASSIFICATION_TYPE = U
NORAD_CAT_ID   = 39679
ELEMENT_SET_NO = 999
REV_AT_EPOCH   = 64291
BSTAR          = .39199527E-3
MEAN_MOTION_DOT = .16572E-3
MEAN_MOTION_DDOT = 0

CCSDS_OMM_VERS = 2.0
CREATION_DATE  = 
ORIGINATOR     = 

OBJECT_NAME    = ALOS-2
OBJECT_ID      = 2014-029A
CENTER_NAME    = EARTH
REF_FRAME      = TEME
TIME_SYSTEM    = UTC
MEAN_ELEMENT_THEORY = SGP/SGP4

EPOCH          = 2025-12-12T12:57:47.930112
MEAN_MOTION    = 14.79474197
ECCENTRICITY   = .00014
INCLINATION    = 97.9217
RA_OF_ASC_NODE = 81.3886
ARG_OF_PERICENTER = 99.6977
MEAN_ANOMALY   = 260.4393

EPHEMERIS_TYPE = 0
CLASSIFICATION_TYPE = U
NORAD_CAT_ID   = 39766
ELEMENT_SET_NO = 999
REV_AT_EPOCH   = 62398
BSTAR          = .62702076E-3
MEAN_MOTION_DOT = .4634E-4
MEAN_MOTION_DDOT = 0

CCSDS_OMM_VERS = 2.0
CREATION_DATE  = 
ORIGINATOR     = 

OBJECT_NAME    = YAOGAN-29
OBJECT_ID      = 2015-069A
CENTER_NAME    = EARTH
REF_FRAME      = TEME
TIME_SYSTEM    = UTC
MEAN_ELEMENT_THEORY = SGP/SGP4

EPOCH          = 2025-12-13T00:31:45.005952
MEAN_MOTION    = 14.82882755
ECCENTRICITY   = .0000172
INCLINATION    = 98.0222
RA_OF_ASC_NODE = 10.1945
ARG_OF_PERICENTER = 314.4133
MEAN_ANOMALY   = 45.7066

EPHEMERIS_TYPE = 0
CLASSIFICATION_TYPE = U
NORAD_CAT_ID   = 41038
ELEMENT_SET_NO = 999
REV_AT_EPOCH   = 54303
BSTAR          = .12118115E-3
MEAN_MOTION_DOT = .928E-5
MEAN_MOTION_DDOT = 0

CCSDS_OMM_VERS = 2.0
CREATION_DATE  = 
ORIGINATOR     = 

OBJECT_NAME    = ASTRO-H (HITOMI)
OBJECT_ID      = 2016-012A
CENTER_NAME    = EARTH
REF_FRAME      = TEME
TIME_SYSTEM    = UTC
MEAN_ELEMENT_THEORY = SGP/SGP4

EPOCH          = 2025-12-12T22:54:45.349920
MEAN_MOTION    = 15.09355444
ECCENTRICITY   = .00095569
INCLINATION    = 30.9982
RA_OF_ASC_NODE = 195.9874
ARG_OF_PERICENTER = 181.2825
MEAN_ANOMALY   = 178.7790

EPHEMERIS_TYPE = 0
CLASSIFICATION_TYPE = U
NORAD_CAT_ID   = 41337
ELEMENT_SET_NO = 999
REV_AT_EPOCH   = 53911
BSTAR          = .30136772E-3
MEAN_MOTION_DOT = .5029E-4
MEAN_MOTION_DDOT = 0

CCSDS_OMM_VERS = 2.0
CREATION_DATE  = 
ORIGINATOR     = 

OBJECT_NAME    = HXMT (HUIYAN)
OBJECT_ID      = 2017-034A
CENTER_NAME    = EARTH
REF_FRAME      = TEME
TIME_SYSTEM    = UTC
MEAN_ELEMENT_THEORY = SGP/SGP4

EPOCH          = 2025-12-12T22:08:32.048160
MEAN_MOTION    = 15.16246317
ECCENTRICITY   = .0031465
INCLINATION    = 43.0129
RA_OF_ASC_NODE = 138.6134
ARG_OF_PERICENTER = 44.5670
MEAN_ANOMALY   = 315.7700

EPHEMERIS_TYPE = 0
CLASSIFICATION_TYPE = U
NORAD_CAT_ID   = 42758
ELEMENT_SET_NO = 999
REV_AT_EPOCH   = 46936
BSTAR          = .35450246E-3
MEAN_MOTION_DOT = .6833E-4
MEAN_MOTION_DDOT = 0

CCSDS_OMM_VERS = 2.0
CREATION_DATE  = 
ORIGINATOR     = 

OBJECT_NAME    = CZ-2C R/B
OBJECT_ID      = 2018-054D
CENTER_NAME    = EARTH
REF_FRAME      = TEME
TIME_SYSTEM    = UTC
MEAN_ELEMENT_THEORY = SGP/SGP4

EPOCH          = 2025-12-12T17:37:53.043744
MEAN_MOTION    = 15.74091686
ECCENTRICITY   = .00153223
INCLINATION    = 35.1325
RA_OF_ASC_NODE = 180.9341
ARG_OF_PERICENTER = 144.1045
MEAN_ANOMALY   = 216.0720

EPHEMERIS_TYPE = 0
CLASSIFICATION_TYPE = U
NORAD_CAT_ID   = 43521
ELEMENT_SET_NO = 999
REV_AT_EPOCH   = 41505
BSTAR          = .82665772E-3
MEAN_MOTION_DOT = .125353E-2
MEAN_MOTION_DDOT = 0

CCSDS_OMM_VERS = 2.0
CREATION_DATE  = 
ORIGINATOR     = 

OBJECT_NAME    = SAOCOM 1A
OBJECT_ID      = 2018-076A
CENTER_NAME    = EARTH
REF_FRAME      = TEME
TIME_SYSTEM    = UTC
MEAN_ELEMENT_THEORY = SGP/SGP4

EPOCH          = 2025-12-12T22:36:23.799168
MEAN_MOTION    = 14.82158705
ECCENTRICITY   = .00014627
INCLINATION    = 97.8847
RA_OF_ASC_NODE = 171.3610
ARG_OF_PERICENTER = 81.3012
MEAN_ANOMALY   = 278.8366

EPHEMERIS_TYPE = 0
CLASSIFICATION_TYPE = U
NORAD_CAT_ID   = 43641
ELEMENT_SET_NO = 999
REV_AT_EPOCH   = 38851
BSTAR          = .14385272E-3
MEAN_MOTION_DOT = .1093E-4
MEAN_MOTION_DDOT = 0

CCSDS_OMM_VERS = 2.0
CREATION_DATE  = 
ORIGINATOR     = 

OBJECT_NAME    = H-2A R/B
OBJECT_ID      = 2018-084L
CENTER_NAME    = EARTH
REF_FRAME      = TEME
TIME_SYSTEM    = UTC
MEAN_ELEMENT_THEORY = SGP/SGP4

EPOCH          = 2025-12-13T00:25:48.352800
MEAN_MOTION    = 15.37383341
ECCENTRICITY   = .00272911
INCLINATION    = 98.8776
RA_OF_ASC_NODE = 181.1543
ARG_OF_PERICENTER = 325.5655
MEAN_ANOMALY   = 34.3816

EPHEMERIS_TYPE = 0
CLASSIFICATION_TYPE = U
NORAD_CAT_ID   = 43682
ELEMENT_SET_NO = 999
REV_AT_EPOCH   = 39244
BSTAR          = .69548817E-3
MEAN_MOTION_DOT = .25756E-3
MEAN_MOTION_DDOT = 0

CCSDS_OMM_VERS = 2.0
CREATION_DATE  = 
ORIGINATOR     = 

OBJECT_NAME    = SAOCOM 1B
OBJECT_ID      = 2020-059A
CENTER_NAME    = EARTH
REF_FRAME      = TEME
TIME_SYSTEM    = UTC
MEAN_ELEMENT_THEORY = SGP/SGP4

EPOCH          = 2025-12-13T00:58:36.426432
MEAN_MOTION    = 14.82161588
ECCENTRICITY   = .00012992
INCLINATION    = 97.8844
RA_OF_ASC_NODE = 170.5589
ARG_OF_PERICENTER = 81.6339
MEAN_ANOMALY   = 278.5021

EPHEMERIS_TYPE = 0
CLASSIFICATION_TYPE = U
NORAD_CAT_ID   = 46265
ELEMENT_SET_NO = 999
REV_AT_EPOCH   = 28591
BSTAR          = .11041315E-3
MEAN_MOTION_DOT = .827E-5
MEAN_MOTION_DDOT = 0

CCSDS_OMM_VERS = 2.0
CREATION_DATE  = 
ORIGINATOR     = 

OBJECT_NAME    = CSS (TIANHE)
OBJECT_ID      = 2021-035A
CENTER_NAME    = EARTH
REF_FRAME      = TEME
TIME_SYSTEM    = UTC
MEAN_ELEMENT_THEORY = SGP/SGP4

EPOCH          = 2025-12-12T23:18:04.584096
MEAN_MOTION    = 15.59178060
ECCENTRICITY   = .00082454
INCLINATION    = 41.4684
RA_OF_ASC_NODE = 15.3046
ARG_OF_PERICENTER = 32.5257
MEAN_ANOMALY   = 327.6088

EPHEMERIS_TYPE = 0
CLASSIFICATION_TYPE = U
NORAD_CAT_ID   = 48274
ELEMENT_SET_NO = 999
REV_AT_EPOCH   = 26421
BSTAR          = .33032775E-3
MEAN_MOTION_DOT = .26417E-3
MEAN_MOTION_DDOT = 0

CCSDS_OMM_VERS = 2.0
CREATION_DATE  = 
ORIGINATOR     = 

OBJECT_NAME    = COSMOS 2550
OBJECT_ID      = 2021-056A
CENTER_NAME    = EARTH
REF_FRAME      = TEME
TIME_SYSTEM    = UTC
MEAN_ELEMENT_THEORY = SGP/SGP4

EPOCH          = 2025-12-12T08:02:07.043136
MEAN_MOTION    = 15.33834191
ECCENTRICITY   = .00083954
INCLINATION    = 67.1456
RA_OF_ASC_NODE = 305.1584
ARG_OF_PERICENTER = 269.9074
MEAN_ANOMALY   = 90.1118

EPHEMERIS_TYPE = 0
CLASSIFICATION_TYPE = U
NORAD_CAT_ID   = 48865
ELEMENT_SET_NO = 999
REV_AT_EPOCH   = 25006
BSTAR          = .5784717E-5
MEAN_MOTION_DOT = -.1E-7
MEAN_MOTION_DDOT = 0

CCSDS_OMM_VERS = 2.0
CREATION_DATE  = 
ORIGINATOR     = 

OBJECT_NAME    = CZ-2C R/B
OBJECT_ID      = 2022-058K
CENTER_NAME    = EARTH
REF_FRAME      = TEME
TIME_SYSTEM    = UTC
MEAN_ELEMENT_THEORY = SGP/SGP4

EPOCH          = 2025-12-12T20:55:14.878272
MEAN_MOTION    = 15.48513889
ECCENTRICITY   = .00453583
INCLINATION    = 50.1911
RA_OF_ASC_NODE = 42.8757
ARG_OF_PERICENTER = 199.0535
MEAN_ANOMALY   = 160.8738

EPHEMERIS_TYPE = 0
CLASSIFICATION_TYPE = U
NORAD_CAT_ID   = 52794
ELEMENT_SET_NO = 999
REV_AT_EPOCH   = 19665
BSTAR          = .56093468E-3
MEAN_MOTION_DOT = .31349E-3
MEAN_MOTION_DDOT = 0

