SL-4 R/B                
1 39679U 14021B   25346.87595226  .00016572  00000+0  39200-3 0  9993
2 39679  51.6088  39.9315 0101708 146.6242 214.1207 15.36676627642914
ALOS-2                  
1 39766U 14029A   25346.54013808  .00004634  00000+0  62702-3 0  9992
2 39766  97.9217  81.3886 0001400  99.6977 260.4393 14.79474197623982
YAOGAN-29               
1 41038U 15069A   25347.02204868  .00000928  00000+0  12118-3 0  9992
2 41038  98.0222  10.1945 0000172 314.4133  45.7066 14.82882755543033
ASTRO-H (HITOMI)        
1 41337U 16012A   25346.95469155  .00005029  00000+0  30137-3 0  9994
2 41337  30.9982 195.9874 0009556 181.2825 178.7790 15.09355444539114
HXMT (HUIYAN)           
1 42758U 17034A   25346.92259315  .00006833  00000+0  35450-3 0  9996
2 42758  43.0129 138.6134 0031465  44.5670 315.7700 15.16246317469365
CZ-2C R/B               
1 43521U 18054D   25346.73464171  .00125353  00000+0  82666-3 0  9995
2 43521  35.1325 180.9341 0015322 144.1045 216.0720 15.74091686415054
SAOCOM 1A               
1 43641U 18076A   25346.94194212  .00001093  00000+0  14385-3 0  9998
2 43641  97.8847 171.3610 0001462  81.3012 278.8366 14.82158705388516
H-2A R/B                
1 43682U 18084L   25347.01792075  .00025756  00000+0  69549-3 0  9996
2 43682  98.8776 181.1543 0027291 325.5655  34.3816 15.37383341392440
SAOCOM 1B               
1 46265U 20059A   25347.04069938  .00000827  00000+0  11041-3 0  9995
2 46265  97.8844 170.5589 0001299  81.6339 278.5021 14.82161588285915
CSS (TIANHE)            
1 48274U 21035A   25346.97088639  .00026417  00000+0  33033-3 0  9990
2 48274  41.4684  15.3046 0008245  32.5257 327.6088 15.59178060264217
COSMOS 2550             
1 48865U 21056A   25346.33480374 -.00000001  00000+0  57847-5 0  9994
2 48865  67.1456 305.1584 0008395 269.9074  90.1118 15.33834191250061
CZ-2C R/B               
1 52794U 22058K   25346.87169998  .00031349  00000+0  56093-3 0  9996
2 52794  50.1911  42.8757 0045358 199.0535 160.8738 15.48513889196658
